NORAD_CAT_ID,OBJECT_NAME,OBJECT_TYPE,EPOCH,MEAN_MOTION,ECCENTRICITY,INCLINATION,RA_OF_ASC_NODE,ARG_OF_PERICENTER,MEAN_ANOMALY,BSTAR,MEAN_MOTION_DOT,MEAN_MOTION_DDOT,TLE_LINE0,TLE_LINE1,TLE_LINE2,SEMIMAJOR_AXIS,PERIOD,APOGEE,PERIGEE,DECAYED
51116.0,STARLINK-3243,PAYLOAD,2023-11-27 15:46:48,15.0883077,0.0001156,53.2181,68.7188,81.09,279.0223,-0.00012642,-2.299e-05,0.0,0 STARLINK-3243,1 51116U 22005N   23331.65750694 -.00002299  00000-0 -12642-3 0  9999,2 51116  53.2181  68.7188 0001156  81.0900 279.0223 15.08830770103115,6917.909,95.438,540.573,538.974,0.0
51116.0,STARLINK-3243,PAYLOAD,2023-11-28 12:26:48,15.0883141,0.0001194,53.2201,64.8505,89.3742,270.7387,0.00022389,3.276e-05,0.0,0 STARLINK-3243,1 51116U 22005N   23332.51861642  .00003276  00000-0  22389-3 0  9994,2 51116  53.2201  64.8505 0001194  89.3742 270.7387 15.08831410104353,6917.907,95.438,540.598,538.946,0.0
51116.0,STARLINK-3243,PAYLOAD,2023-11-28 14:02:10,15.08862147,0.0001657,53.2196,64.5536,60.6925,299.4232,0.00013263,1.825e-05,0.0,0 STARLINK-3243,1 51116U 22005N   23332.58484323  .00001825  00000-0  13263-3 0  9997,2 51116  53.2196  64.5536 0001657  60.6925 299.4232 15.08862147103252,6917.813,95.436,540.824,538.531,0.0
51116.0,STARLINK-3243,PAYLOAD,2023-11-29 12:17:36,15.08828658,0.0001416,53.2186,60.394,76.6162,283.4988,0.00016395,2.322e-05,0.0,0 STARLINK-3243,1 51116U 22005N   23333.51222885  .00002322  00000-0  16395-3 0  9996,2 51116  53.2186  60.3940 0001416  76.6162 283.4988 15.08828658104506,6917.915,95.438,540.76,538.8,0.0
51116.0,STARLINK-3243,PAYLOAD,2023-11-30 12:08:22,15.08856887,0.0001482,53.2192,55.933,93.501,266.6152,2.3828e-05,9.1e-07,0.0,0 STARLINK-3243,1 51116U 22005N   23334.50581618  .00000091  00000-0  23828-4 0  9999,2 51116  53.2192  55.9330 0001482  93.5010 266.6152 15.08856887104656,6917.829,95.436,540.719,538.669,0.0
51116.0,STARLINK-3243,PAYLOAD,2023-12-01 10:23:47,15.0884215,0.0001474,53.2191,51.7701,99.8187,260.2972,0.00012796,1.749e-05,0.0,0 STARLINK-3243,1 51116U 22005N   23335.43318358  .00001749  00000-0  12796-3 0  9993,2 51116  53.2191  51.7701 0001474  99.8187 260.2972 15.08842150104799,6917.874,95.437,540.759,538.719,0.0
51116.0,STARLINK-3243,PAYLOAD,2023-12-02 10:14:34,15.08826447,0.0001298,53.2178,47.3062,108.0024,252.111,-0.00030712,-5.17e-05,0.0,0 STARLINK-3243,1 51116U 22005N   23336.42678308 -.00005170  00000-0 -30712-3 0  9999,2 51116  53.2178  47.3062 0001298 108.0024 252.1110 15.08826447104944,6917.922,95.438,540.685,538.889,0.0
51116.0,STARLINK-3243,PAYLOAD,2023-12-03 10:05:23,15.08813266,0.0001475,53.2177,42.8502,76.0147,284.1009,-0.00023647,-4.047e-05,0.0,0 STARLINK-3243,1 51116U 22005N   23337.42040624 -.00004047  00000-0 -23647-3 0  9995,2 51116  53.2177  42.8502 0001475  76.0147 284.1009 15.08813266105093,6917.962,95.439,540.848,538.807,0.0
51116.0,STARLINK-3243,PAYLOAD,2023-12-03 13:16:09,15.08817849,0.0001593,53.2189,42.255,96.0942,264.0231,-0.00016391,-2.894e-05,0.0,0 STARLINK-3243,1 51116U 22005N   23337.55288520 -.00002894  00000-0 -16391-3 0  9994,2 51116  53.2189  42.2550 0001593  96.0942 264.0231 15.08817849104004,6917.948,95.439,540.915,538.711,0.0
51116.0,STARLINK-3243,PAYLOAD,2023-12-04 03:34:38,15.0881784,0.000125,53.2159,39.5718,90.8515,269.262,0.0003631,5.492e-05,0.0,0 STARLINK-3243,1 51116U 22005N   23338.14905106  .00005492  00000-0  36310-3 0  9994,2 51116  53.2159  39.5718 0001250  90.8515 269.2620 15.08817840105207,6917.948,95.439,540.678,538.948,0.0
51116.0,STARLINK-3243,PAYLOAD,2023-12-04 11:31:32,15.08834482,0.0001587,53.219,38.0935,66.7141,293.4018,0.00042508,6.483e-05,0.0,0 STARLINK-3243,1 51116U 22005N   23338.48023900  .00006483  00000-0  42508-3 0  9991,2 51116  53.2190  38.0935 0001587  66.7141 293.4018 15.08834482105253,6917.897,95.438,540.86,538.664,0.0
51116.0,STARLINK-3243,PAYLOAD,2023-12-04 13:06:56,15.0884292,0.0001634,53.2184,37.7957,79.3692,280.7484,0.00058996,9.114e-05,0.0,0 STARLINK-3243,1 51116U 22005N   23338.54648279  .00009114  00000-0  58996-3 0  9992,2 51116  53.2184  37.7957 0001634  79.3692 280.7484 15.08842920104150,6917.871,95.437,540.867,538.606,0.0
51116.0,STARLINK-3243,PAYLOAD,2023-12-05 11:22:19,15.08849955,0.0001564,53.2185,33.6322,80.2269,279.89,0.00038947,5.918e-05,0.0,0 STARLINK-3243,1 51116U 22005N   23339.47383166  .00005918  00000-0  38947-3 0  9998,2 51116  53.2185  33.6322 0001564  80.2269 279.8900 15.08849955104297,6917.85,95.437,540.797,538.633,0.0
51116.0,STARLINK-3243,PAYLOAD,2023-12-06 11:13:06,15.08854154,0.0001611,53.2191,29.1686,84.5959,275.5217,-1.0915e-05,-4.62e-06,0.0,0 STARLINK-3243,1 51116U 22005N   23340.46743210 -.00000462  00000-0 -10915-4 0  9996,2 51116  53.2191  29.1686 0001611  84.5959 275.5217 15.08854154105554,6917.837,95.437,540.817,538.588,0.0
51116.0,STARLINK-3243,PAYLOAD,2023-12-06 12:48:29,15.08854515,0.00016,53.219,28.8709,85.1354,274.9821,-1.2522e-05,-4.87e-06,0.0,0 STARLINK-3243,1 51116U 22005N   23340.53367077 -.00000487  00000-0 -12522-4 0  9990,2 51116  53.2190  28.8709 0001600  85.1354 274.9821 15.08854515104452,6917.836,95.437,540.808,538.594,0.0
51116.0,STARLINK-3243,PAYLOAD,2023-12-07 09:28:30,15.08840988,0.0001575,53.2181,25.0082,96.9951,263.122,-7.2233e-05,-1.437e-05,0.0,0 STARLINK-3243,1 51116U 22005N   23341.39479560 -.00001437  00000-0 -72233-4 0  9997,2 51116  53.2181  25.0082 0001575  96.9951 263.1220 15.08840988105698,6917.877,95.437,540.832,538.653,0.0
51116.0,STARLINK-3243,PAYLOAD,2023-12-08 09:19:16,15.08846309,0.00018,53.2192,20.5472,124.863,235.2531,9.1586e-05,1.17e-05,0.0,0 STARLINK-3243,1 51116U 22005N   23342.38838759  .00001170  00000-0  91586-4 0  9990,2 51116  53.2192  20.5472 0001800 124.8630 235.2531 15.08846309105844,6917.861,95.437,540.971,538.481,0.0
51116.0,STARLINK-3243,PAYLOAD,2023-12-08 12:30:03,15.08841089,0.0001377,53.2181,19.9506,98.1688,261.9461,0.00025293,3.74e-05,0.0,0 STARLINK-3243,1 51116U 22005N   23342.52086884  .00003740  00000-0  25293-3 0  9996,2 51116  53.2181  19.9506 0001377  98.1688 261.9461 15.08841089104754,6917.877,95.437,540.695,538.789,0.0
51116.0,STARLINK-3243,PAYLOAD,2023-12-09 09:10:04,15.0883668,0.0001622,53.2187,16.084,99.9437,260.1738,5.6455e-05,6.1e-06,0.0,0 STARLINK-3243,1 51116U 22005N   23343.38199657  .00000610  00000-0  56455-4 0  9992,2 51116  53.2187  16.0840 0001622  99.9437 260.1738 15.08836680105999,6917.891,95.438,540.878,538.633,0.0
51116.0,STARLINK-3243,PAYLOAD,2023-12-09 12:20:50,15.08836551,0.0001674,53.2187,15.4896,98.1637,261.9545,7.5418e-05,9.12e-06,0.0,0 STARLINK-3243,1 51116U 22005N   23343.51447617  .00000912  00000-0  75418-4 0  9994,2 51116  53.2187  15.4896 0001674  98.1637 261.9545 15.08836551104905,6917.891,95.438,540.914,538.598,0.0
51116.0,STARLINK-3243,PAYLOAD,2023-12-11 07:16:15,15.08838022,0.0001578,53.2185,7.4612,94.2543,265.8629,5.6089e-05,6.05e-06,0.0,0 STARLINK-3243,1 51116U 22005N   23345.30295752  .00000605  00000-0  56089-4 0  9996,2 51116  53.2185   7.4612 0001578  94.2543 265.8629 15.08838022106280,6917.886,95.438,540.843,538.66,0.0
51116.0,STARLINK-3243,PAYLOAD,2023-12-12 08:42:25,15.08842387,0.0001557,53.2183,2.7053,83.0074,277.1095,0.00012139,1.645e-05,0.0,0 STARLINK-3243,1 51116U 22005N   23346.36279440  .00001645  00000-0  12139-3 0  9991,2 51116  53.2183   2.7053 0001557  83.0074 277.1095 15.08842387106447,6917.873,95.437,540.815,538.661,0.0
51116.0,STARLINK-3243,PAYLOAD,2023-12-13 08:33:12,15.08841795,0.0001625,53.2186,358.2457,78.2054,281.9121,8.5637e-05,1.075e-05,0.0,0 STARLINK-3243,1 51116U 22005N   23347.35639649  .00001075  00000-0  85637-4 0  9993,2 51116  53.2186 358.2457 0001625  78.2054 281.9121 15.08841795105485,6917.875,95.437,540.864,538.616,0.0
51116.0,STARLINK-3243,PAYLOAD,2023-12-14 06:48:36,15.08842757,0.0001894,53.219,354.0823,69.5352,290.5844,3.5286e-05,2.74e-06,0.0,0 STARLINK-3243,1 51116U 22005N   23348.28375832  .00000274  00000-0  35286-4 0  9992,2 51116  53.2190 354.0823 0001894  69.5352 290.5844 15.08842757105626,6917.872,95.437,541.047,538.427,0.0
51116.0,STARLINK-3243,PAYLOAD,2023-12-15 05:04:00,15.08837981,0.0001911,53.219,349.9184,70.0371,290.0827,2.6474e-05,1.33e-06,0.0,0 STARLINK-3243,1 51116U 22005N   23349.21112175  .00000133  00000-0  26474-4 0  9998,2 51116  53.2190 349.9184 0001911  70.0371 290.0827 15.08837981106874,6917.887,95.438,541.074,538.43,0.0
51116.0,STARLINK-3243,PAYLOAD,2023-12-15 06:39:24,15.08838198,0.0001888,53.2189,349.6214,70.7044,289.4152,2.6656e-05,1.36e-06,0.0,0 STARLINK-3243,1 51116U 22005N   23349.27736164  .00000136  00000-0  26656-4 0  9999,2 51116  53.2189 349.6214 0001888  70.7044 289.4152 15.08838198105772,6917.886,95.438,541.057,538.445,0.0
51116.0,STARLINK-3243,PAYLOAD,2023-12-16 06:30:11,15.08837515,0.0001745,53.219,345.1616,100.9006,259.2183,5.0765e-05,5.2e-06,0.0,0 STARLINK-3243,1 51116U 22005N   23350.27096186  .00000520  00000-0  50765-4 0  9999,2 51116  53.2190 345.1616 0001745 100.9006 259.2183 15.08837515107039,6917.888,95.438,540.96,538.546,0.0
51116.0,STARLINK-3243,PAYLOAD,2023-12-17 06:20:57,15.08843126,0.0001543,53.2182,340.6966,93.2755,266.8414,6.7218e-05,7.82e-06,0.0,0 STARLINK-3243,1 51116U 22005N   23351.26456005  .00000782  00000-0  67218-4 0  9990,2 51116  53.2182 340.6966 0001543  93.2755 266.8414 15.08843126106078,6917.871,95.437,540.803,538.668,0.0
51116.0,STARLINK-3243,PAYLOAD,2023-12-18 03:00:58,15.08845363,0.0001547,53.2181,336.8315,93.5421,266.5748,0.00011482,1.54e-05,0.0,0 STARLINK-3243,1 51116U 22005N   23352.12567793  .00001540  00000-0  11482-3 0  9997,2 51116  53.2181 336.8315 0001547  93.5421 266.5748 15.08845363107319,6917.864,95.437,540.799,538.659,0.0
51116.0,STARLINK-3243,PAYLOAD,2023-12-18 04:36:21,15.08847969,0.0001516,53.2178,336.5365,92.7836,267.3329,0.00010156,1.329e-05,0.0,0 STARLINK-3243,1 51116U 22005N   23352.19191677  .00001329  00000-0  10156-3 0  9990,2 51116  53.2178 336.5365 0001516  92.7836 267.3329 15.08847969106210,6917.856,95.437,540.77,538.672,0.0
